STARLINK-30264          
1 57534U 23115P   26068.40791260 -.00000064  00000+0  71732-5 0  9992
2 57534  42.9960 210.4823 0000753 146.8642 213.2257 15.27567754145317
OTTER                   
1 62623U 25009Q   26068.72300813  .00012198  00000+0  45151-3 0  9990
2 62623  97.4065 151.3812 0003573 310.7710  49.3219 15.27809545 63722
